NORAD_CAT_ID,OBJECT_NAME,OBJECT_TYPE,EPOCH,MEAN_MOTION,ECCENTRICITY,INCLINATION,RA_OF_ASC_NODE,ARG_OF_PERICENTER,MEAN_ANOMALY,BSTAR,MEAN_MOTION_DOT,MEAN_MOTION_DDOT,TLE_LINE0,TLE_LINE1,TLE_LINE2,SEMIMAJOR_AXIS,PERIOD,APOGEE,PERIGEE,DECAYED
52112.0,STARLINK-3734,PAYLOAD,2022-06-07 22:00:00,15.16172318,0.0001843,53.2175,112.8868,39.5218,256.0706,-0.039725,-0.00722757,0.0,0 STARLINK-3734,1 52112U 22029AA  22158.91667824 -.00722757  00000-0 -39725-1 0  9996,2 52112  53.2175 112.8868 0001843  39.5218 256.0706 15.16172318  1309,6895.559,94.976,518.695,516.153,0.0
52112.0,STARLINK-3734,PAYLOAD,2022-06-08 06:00:02,15.15661582,0.0002037,53.2175,111.3749,32.6873,283.063,-0.040271,-0.00722133,0.0,0 STARLINK-3734,1 52112U 22029AA  22159.25002315 -.00722133  00000-0 -40271-1 0  9998,2 52112  53.2175 111.3749 0002037  32.6873 283.0630 15.15661582 13885,6897.108,95.008,520.378,517.568,0.0
52112.0,STARLINK-3734,PAYLOAD,2022-06-08 14:00:01,15.15153335,0.0001526,53.2175,109.8609,47.5162,287.6538,-0.041074,-0.00725617,0.0,0 STARLINK-3734,1 52112U 22029AA  22159.58334491 -.00725617  00000-0 -41074-1 0  9999,2 52112  53.2175 109.8609 0001526  47.5162 287.6538 15.15153335  1303,6898.65,95.04,521.568,519.462,0.0
52112.0,STARLINK-3734,PAYLOAD,2022-06-08 22:00:01,15.14642311,0.000176,53.2176,108.3493,38.788,315.3152,-0.041503,-0.00722843,0.0,0 STARLINK-3734,1 52112U 22029AA  22159.91668981 -.00722843  00000-0 -41503-1 0  9995,2 52112  53.2176 108.3493 0001760  38.7880 315.3152 15.14642311  1305,6900.2019999999975,95.072,523.281,520.852,0.0
52112.0,STARLINK-3734,PAYLOAD,2022-06-09 06:00:00,15.14131472,0.0001689,53.2175,106.8409,41.5809,330.7155,-0.042065,-0.00722136,0.0,0 STARLINK-3734,1 52112U 22029AA  22160.25001157 -.00722136  00000-0 -42065-1 0  9999,2 52112  53.2175 106.8409 0001689  41.5809 330.7155 15.14131472 14047,6901.754,95.104,524.784,522.453,0.0
52112.0,STARLINK-3734,PAYLOAD,2022-06-09 14:00:01,15.13622507,0.0001647,53.2175,105.3304,40.6903,349.251,-0.042804,-0.00724167,0.0,0 STARLINK-3734,1 52112U 22029AA  22160.58334491 -.00724167  00000-0 -42804-1 0  9992,2 52112  53.2175 105.3304 0001647  40.6903 349.2510 15.13622507  1302,6903.301,95.136,526.303,524.029,0.0
52112.0,STARLINK-3734,PAYLOAD,2022-06-09 22:00:00,15.131124300000002,0.0001701,53.2174,103.8226,41.1831,5.7894,-0.043362,-0.00723205,0.0,0 STARLINK-3734,1 52112U 22029AA  22160.91667824 -.00723205  00000-0 -43362-1 0  9990,2 52112  53.2174 103.8226 0001701  41.1831   5.7894 15.13112430  1302,6904.852,95.168,527.8919999999998,525.543,0.0
52112.0,STARLINK-3734,PAYLOAD,2022-06-10 06:00:02,15.12600418,0.0001766,53.2174,102.3171,39.5873,23.8667,-0.043802,-0.00720315,0.0,0 STARLINK-3734,1 52112U 22029AA  22161.25002315 -.00720315  00000-0 -43802-1 0  9994,2 52112  53.2174 102.3171 0001766  39.5873  23.8667 15.12600418 14190,6906.41,95.2,529.495,527.055,0.0
52112.0,STARLINK-3734,PAYLOAD,2022-06-10 14:00:01,15.12091911,0.0001811,53.2175,100.8101,37.6383,41.5591,-0.044612,-0.00723051,0.0,0 STARLINK-3734,1 52112U 22029AA  22161.58334491 -.00723051  00000-0 -44612-1 0  9993,2 52112  53.2175 100.8101 0001811  37.6383  41.5591 15.12091911  1307,6907.958000000001,95.232,531.0740000000002,528.572,0.0
52112.0,STARLINK-3734,PAYLOAD,2022-06-10 22:00:00,15.11582002,0.000182,53.2174,99.3059,39.3347,55.0554,-0.045238,-0.00722831,0.0,0 STARLINK-3734,1 52112U 22029AA  22161.91667824 -.00722831  00000-0 -45238-1 0  9999,2 52112  53.2174  99.3059 0001820  39.3347  55.0554 15.11582002  1303,6909.512,95.264,532.634,530.119,0.0
52112.0,STARLINK-3734,PAYLOAD,2022-06-11 06:00:00,15.11068984,0.0001872,53.2173,97.8044,38.9384,70.0322,-0.045546,-0.00717784,0.0,0 STARLINK-3734,1 52112U 22029AA  22162.25001157 -.00717784  00000-0 -45546-1 0  9991,2 52112  53.2173  97.8044 0001872  38.9384  70.0322 15.11068984 14348,6911.076,95.297,534.234,531.6469999999998,0.0
52112.0,STARLINK-3734,PAYLOAD,2022-06-11 22:00:00,15.10051779,0.0001961,53.2175,94.8003,37.7181,98.5743,-0.047178,-0.00722457,0.0,0 STARLINK-3734,1 52112U 22029AA  22162.91667824 -.00722457  00000-0 -47178-1 0  9999,2 52112  53.2175  94.8003 0001961  37.7181  98.5743 15.10051779  1300,6914.179,95.361,537.4,534.688,0.0
52112.0,STARLINK-3734,PAYLOAD,2022-06-12 04:00:00,15.09671567,0.0001756,53.2174,93.677,41.7222,14.1824,-0.047974,-0.00726626,0.0,0 STARLINK-3734,1 52112U 22029AA  22163.16667824 -.00726626  00000-0 -47974-1 0  9993,2 52112  53.2174  93.6770 0001756  41.7222  14.1824 15.09671567 14488,6915.34,95.385,538.419,535.99,0.0
52112.0,STARLINK-3734,PAYLOAD,2022-06-12 14:00:01,15.08892044,0.0001855,53.2174,91.8028,38.6651,122.5159,-0.0055088,-0.00087028,0.0,0 STARLINK-3734,1 52112U 22029AA  22163.58334491 -.00087028  00000-0 -55088-2 0  9992,2 52112  53.2174  91.8028 0001855  38.6651 122.5159 15.08892044 14541,6917.721,95.434,540.87,538.303,0.0
52112.0,STARLINK-3734,PAYLOAD,2022-06-12 22:00:00,15.08837729,0.0001877,53.2176,90.3067,41.6795,131.1202,-0.00010221,-1.914e-05,0.0,0 STARLINK-3734,1 52112U 22029AA  22163.91667824 -.00001914  00000-0 -10221-3 0  9999,2 52112  53.2176  90.3067 0001877  41.6795 131.1202 15.08837729  1301,6917.887,95.438,541.0509999999998,538.4540000000002,0.0
52112.0,STARLINK-3734,PAYLOAD,2022-06-13 06:00:02,15.08849916,0.0001996,53.2131,88.8192,40.7804,143.7977,0.0034951,0.00055793,0.0,0 STARLINK-3734,1 52112U 22029AA  22164.25002315  .00055793  00000-0  34951-2 0  9992,2 52112  53.2131  88.8192 0001996  40.7804 143.7977 15.08849916 14646,6917.85,95.437,541.096,538.3340000000002,0.0
52112.0,STARLINK-3734,PAYLOAD,2022-06-13 14:00:01,15.08863058,0.0001776999999999,53.2132,87.321,44.7176,151.429,-0.0019496,-0.00031202,0.0,0 STARLINK-3734,1 52112U 22029AA  22164.58334491 -.00031202  00000-0 -19496-2 0  9999,2 52112  53.2132  87.3210 0001777  44.7176 151.4290 15.08863058 14697,6917.81,95.436,540.904,538.446,0.0
52112.0,STARLINK-3734,PAYLOAD,2022-06-13 22:00:00,15.0884997,0.0001849,53.2135,85.8253,47.2725,160.487,-0.0033125,-0.00052637,0.0,0 STARLINK-3734,1 52112U 22029AA  22164.91667824 -.00052637  00000-0 -33125-2 0  9995,2 52112  53.2135  85.8253 0001849  47.2725 160.4870 15.08849970  1303,6917.85,95.437,540.994,538.436,0.0
52112.0,STARLINK-3734,PAYLOAD,2022-06-14 14:00:01,15.08808029,0.0001822,53.2132,82.8319,49.3584,181.5619,0.002421,0.00038419,0.0,0 STARLINK-3734,1 52112U 22029AA  22165.58334491  .00038419  00000-0  24210-2 0  9995,2 52112  53.2132  82.8319 0001822  49.3584 181.5619 15.08808029 14845,6917.978,95.44,541.104,538.5830000000002,0.0
52112.0,STARLINK-3734,PAYLOAD,2022-06-14 22:00:00,15.08862316,0.0001856,53.2132,81.3365,49.7558,192.7362,-0.0040895,-0.00064828,0.0,0 STARLINK-3734,1 52112U 22029AA  22165.91667824 -.00064828  00000-0 -40895-2 0  9993,2 52112  53.2132  81.3365 0001856  49.7558 192.7362 15.08862316  1307,6917.812,95.436,540.961,538.393,0.0
52112.0,STARLINK-3734,PAYLOAD,2022-06-15 06:00:00,15.08812404,0.0001903,53.2129,79.8412,43.2762,210.8297,0.0025468,0.00040447,0.0,0 STARLINK-3734,1 52112U 22029AA  22166.25001157  .00040447  00000-0  25468-2 0  9990,2 52112  53.2129  79.8412 0001903  43.2762 210.8297 15.08812404 14943,6917.965,95.439,541.146,538.513,0.0
52112.0,STARLINK-3734,PAYLOAD,2022-06-15 14:00:01,15.08816431,0.0001737,53.2127,78.3428,48.5369,217.1591,0.0028419,0.00045202,0.0,0 STARLINK-3734,1 52112U 22029AA  22166.58334491  .00045202  00000-0  28419-2 0  9999,2 52112  53.2127  78.3428 0001737  48.5369 217.1591 15.08816431  1305,6917.9519999999975,95.439,541.019,538.616,0.0
52112.0,STARLINK-3734,PAYLOAD,2022-06-15 22:00:00,15.08863715,0.0001808,53.2127,76.8474,48.8019,228.4805,-0.00094831,-0.00015359,0.0,0 STARLINK-3734,1 52112U 22029AA  22166.91667824 -.00015359  00000-0 -94831-3 0  9999,2 52112  53.2127  76.8474 0001808  48.8019 228.4805 15.08863715  1303,6917.808000000001,95.436,540.924,538.422,0.0
52112.0,STARLINK-3734,PAYLOAD,2022-06-16 02:00:01,15.08863611,0.0001906,53.2126,76.1,46.0358,57.0609,-0.00061457,-0.00010062,0.0,0 STARLINK-3734,1 52112U 22029AA  22167.08334491 -.00010062  00000-0 -61457-3 0  9993,2 52112  53.2126  76.1000 0001906  46.0358  57.0609 15.08863611  1308,6917.808000000001,95.436,540.992,538.355,0.0
52112.0,STARLINK-3734,PAYLOAD,2022-06-19 14:00:01,15.08803339,0.0001742,53.213,60.3839,48.5725,356.2382,0.003697,0.00058983,0.0,0 STARLINK-3734,1 52112U 22029AA  22170.58334491  .00058983  00000-0  36970-2 0  9995,2 52112  53.2130  60.3839 0001742  48.5725 356.2382 15.08803339  1304,6917.9919999999975,95.44,541.063,538.6519999999998,0.0
52112.0,STARLINK-3734,PAYLOAD,2022-06-19 20:09:44,15.08840267,0.0001853,53.2127,59.2337,41.3676,318.7959,0.00032783,4.933e-05,0.0,0 STARLINK-3734,1 52112U 22029AA  22170.84009363  .00004933  00000-0  32783-3 0  9996,2 52112  53.2127  59.2337 0001853  41.3676 318.7959 15.08840267 15645,6917.88,95.438,541.026,538.4630000000002,0.0
52112.0,STARLINK-3734,PAYLOAD,2022-06-20 14:00:01,15.08807639,0.0001667,53.2133,55.8941,47.903,31.6935,0.0035246,0.00056204,0.0,0 STARLINK-3734,1 52112U 22029AA  22171.58334491  .00056204  00000-0  35246-2 0  9995,2 52112  53.2133  55.8941 0001667  47.9030  31.6935 15.08807639  1303,6917.979,95.44,540.998,538.691,0.0
52112.0,STARLINK-3734,PAYLOAD,2022-06-20 22:00:00,15.08847667,0.0001835,53.2134,54.3992,45.0986,46.0689,-0.00087682,-0.00014219,0.0,0 STARLINK-3734,1 52112U 22029AA  22171.91667824 -.00014219  00000-0 -87682-3 0  9995,2 52112  53.2134  54.3992 0001835  45.0986  46.0689 15.08847667 15801,6917.857,95.437,540.991,538.453,0.0
52112.0,STARLINK-3734,PAYLOAD,2022-06-21 14:00:01,15.08813032,0.0001589,53.2134,51.4046,47.6168,66.768,0.0031636,0.00050384,0.0,0 STARLINK-3734,1 52112U 22029AA  22172.58334491  .00050384  00000-0  31636-2 0  9998,2 52112  53.2134  51.4046 0001589  47.6168  66.7680 15.08813032  1304,6917.9630000000025,95.439,540.927,538.729,0.0
